[{"OBJECT_NAME":"OBJECT K","OBJECT_ID":"2024-205K","EPOCH":"2026-03-09T22:22:01.331040","MEAN_MOTION":15.27932792,"ECCENTRICITY":0.00106729,"INCLINATION":97.417,"RA_OF_ASC_NODE":146.2172,"ARG_OF_PERICENTER":37.4736,"MEAN_ANOMALY":322.7246,"EPHEMERIS_TYPE":0,"CLASSIFICATION_TYPE":"U","NORAD_CAT_ID":61903,"ELEMENT_SET_NO":999,"REV_AT_EPOCH":7347,"BSTAR":0.00067315144,"MEAN_MOTION_DOT":0.00018331,"MEAN_MOTION_DDOT":0},{"OBJECT_NAME":"STARLINK-34493","OBJECT_ID":"2025-133A","EPOCH":"2026-03-09T13:10:09.927264","MEAN_MOTION":15.3019727,"ECCENTRICITY":0.000123,"INCLINATION":53.1574,"RA_OF_ASC_NODE":117.6824,"ARG_OF_PERICENTER":79.1032,"MEAN_ANOMALY":281.0107,"EPHEMERIS_TYPE":0,"CLASSIFICATION_TYPE":"U","NORAD_CAT_ID":64472,"ELEMENT_SET_NO":999,"REV_AT_EPOCH":4116,"BSTAR":0.0012723,"MEAN_MOTION_DOT":0.0003751,"MEAN_MOTION_DDOT":0}]
